{
"type": "FeatureCollection",
"name": "SELECT",
"crs": { "type": "name", "properties": { "name": "urn:ogc:def:crs:EPSG::6668" } },
"features": [
{ "type": "Feature", "properties": { "name": "中区", "code": "23106" }, "geometry": { "type": "Polygon", "coordinates": [ [ [ 136.91033, 35.14781 ], [ 136.91216, 35.14329 ], [ 136.90842, 35.14329 ], [ 136.90784, 35.1439 ], [ 136.90372, 35.14254 ], [ 136.89563, 35.14277 ], [ 136.89536, 35.14352 ], [ 136.89423, 35.14779 ], [ 136.892, 35.16715 ], [ 136.89404, 35.17984 ], [ 136.89489, 35.18256 ], [ 136.89618, 35.18274 ], [ 136.89622, 35.18706 ], [ 136.89926, 35.18727 ], [ 136.89946, 35.18666 ], [ 136.90437, 35.18601 ], [ 136.90442, 35.1854 ], [ 136.90514, 35.18543 ], [ 136.90513, 35.18633 ], [ 136.90847, 35.18557 ], [ 136.90867, 35.18304 ], [ 136.90932, 35.183 ], [ 136.90896, 35.18196 ], [ 136.90961, 35.17852 ], [ 136.90726, 35.17842 ], [ 136.90851, 35.178 ], [ 136.90933, 35.1695 ], [ 136.91078, 35.16946 ], [ 136.91233, 35.17047 ], [ 136.91315, 35.16956 ], [ 136.91911, 35.1704 ], [ 136.92549, 35.17029 ], [ 136.92769, 35.16936 ], [ 136.93035, 35.16988 ], [ 136.92777, 35.16813 ], [ 136.92681, 35.16702 ], [ 136.92757, 35.16653 ], [ 136.91033, 35.14781 ] ] ] } },
{ "type": "Feature", "properties": { "name": "中川区", "code": "23110" }, "geometry": { "type": "Polygon", "coordinates": [ [ [ 136.81443, 35.16667 ], [ 136.81443, 35.16558 ], [ 136.81836, 35.16464 ], [ 136.81833, 35.16124 ], [ 136.81734, 35.16104 ], [ 136.81718, 35.15898 ], [ 136.82895, 35.15735 ], [ 136.8306, 35.15736 ], [ 136.83165, 35.15806 ], [ 136.83602, 35.1578 ], [ 136.83186, 35.16023 ], [ 136.83133, 35.16491 ], [ 136.8319, 35.16524 ], [ 136.83391, 35.16458 ], [ 136.83449, 35.16207 ], [ 136.83716, 35.15705 ], [ 136.83746, 35.15487 ], [ 136.83598, 35.15272 ], [ 136.83166, 35.15145 ], [ 136.82917, 35.1495 ], [ 136.8294, 35.14736 ], [ 136.83158, 35.14493 ], [ 136.8351, 35.14614 ], [ 136.83692, 35.14877 ], [ 136.83836, 35.14857 ], [ 136.83928, 35.14764 ], [ 136.83958, 35.14549 ], [ 136.85979, 35.15062 ], [ 136.87927, 35.15955 ], [ 136.882, 35.16006 ], [ 136.88249, 35.15899 ], [ 136.88311, 35.16036 ], [ 136.88557, 35.161 ], [ 136.88517, 35.1625 ], [ 136.88535, 35.16356 ], [ 136.88599, 35.16368 ], [ 136.88764, 35.15717 ], [ 136.88773, 35.15815 ], [ 136.89298, 35.15822 ], [ 136.89455, 35.1459 ], [ 136.89868, 35.1364 ], [ 136.89195, 35.13904 ], [ 136.89218, 35.14009 ], [ 136.88931, 35.14072 ], [ 136.88628, 35.14056 ], [ 136.88256, 35.11844 ], [ 136.86545, 35.11798 ], [ 136.86378, 35.11842 ], [ 136.86348, 35.12301 ], [ 136.85371, 35.1222 ], [ 136.84362, 35.11755 ], [ 136.83958, 35.11645 ], [ 136.83886, 35.11657 ], [ 136.83887, 35.11718 ], [ 136.83717, 35.11737 ], [ 136.83632, 35.1099 ], [ 136.83489, 35.10994 ], [ 136.83376, 35.11763 ], [ 136.83313, 35.1186 ], [ 136.82988, 35.12091 ], [ 136.82789, 35.11892 ], [ 136.82247, 35.11865 ], [ 136.82256, 35.11979 ], [ 136.82185, 35.12056 ], [ 136.82211, 35.1225 ], [ 136.81642, 35.12706 ], [ 136.81568, 35.12689 ], [ 136.81394, 35.12336 ], [ 136.81099, 35.12229 ], [ 136.80965, 35.12258 ], [ 136.80919, 35.12086 ], [ 136.80417, 35.12065 ], [ 136.80364, 35.12217 ], [ 136.79757, 35.12192 ], [ 136.79797, 35.12364 ], [ 136.79735, 35.12389 ], [ 136.79742, 35.12817 ], [ 136.80181, 35.12788 ], [ 136.80282, 35.12926 ], [ 136.80191, 35.13179 ], [ 136.80008, 35.13272 ], [ 136.80007, 35.13886 ], [ 136.80134, 35.14583 ], [ 136.80064, 35.14592 ], [ 136.80091, 35.14804 ], [ 136.80896, 35.14761 ], [ 136.80906, 35.1484 ], [ 136.80941, 35.15357 ], [ 136.80203, 35.15454 ], [ 136.8018, 35.15856 ], [ 136.80265, 35.16092 ], [ 136.80176, 35.1613 ], [ 136.80415, 35.16511 ], [ 136.80465, 35.16554 ], [ 136.80585, 35.16518 ], [ 136.80753, 35.16825 ], [ 136.80846, 35.1673 ], [ 136.81094, 35.16794 ], [ 136.81381, 35.16746 ], [ 136.81443, 35.16667 ] ] ] } },
{ "type": "Feature", "properties": { "name": "中村区", "code": "23105" }, "geometry": { "type": "Polygon", "coordinates": [ [ [ 136.83331, 35.16488 ], [ 136.83359, 35.16667 ], [ 136.83573, 35.16966 ], [ 136.8563, 35.18817 ], [ 136.85888, 35.18954 ], [ 136.86593, 35.19166 ], [ 136.86823, 35.18782 ], [ 136.87739, 35.1789 ], [ 136.881, 35.17113 ], [ 136.88193, 35.17112 ], [ 136.88227, 35.17627 ], [ 136.88764, 35.174 ], [ 136.88822, 35.17389 ], [ 136.88823, 35.17471 ], [ 136.88918, 35.17469 ], [ 136.89227, 35.17329 ], [ 136.89235, 35.17384 ], [ 136.89312, 35.17379 ], [ 136.892, 35.16715 ], [ 136.89298, 35.15822 ], [ 136.88773, 35.15815 ], [ 136.88764, 35.15717 ], [ 136.88599, 35.16368 ], [ 136.88535, 35.16356 ], [ 136.88557, 35.161 ], [ 136.88311, 35.16036 ], [ 136.88249, 35.15899 ], [ 136.882, 35.16006 ], [ 136.87927, 35.15955 ], [ 136.85979, 35.15062 ], [ 136.83958, 35.14549 ], [ 136.83928, 35.14764 ], [ 136.83769, 35.14881 ], [ 136.83612, 35.14821 ], [ 136.8351, 35.14614 ], [ 136.83176, 35.14493 ], [ 136.82908, 35.14805 ], [ 136.82906, 35.14927 ], [ 136.83011, 35.15054 ], [ 136.83598, 35.15272 ], [ 136.83741, 35.15461 ], [ 136.83716, 35.15705 ], [ 136.83449, 35.16207 ], [ 136.83391, 35.16458 ], [ 136.83331, 35.16488 ] ] ] } },
{ "type": "Feature", "properties": { "name": "北区", "code": "23103" }, "geometry": { "type": "Polygon", "coordinates": [ [ [ 136.92834, 35.225 ], [ 136.93052, 35.22497 ], [ 136.93079, 35.22304 ], [ 136.93535, 35.2242 ], [ 136.93552, 35.22352 ], [ 136.93983, 35.22425 ], [ 136.9399, 35.22193 ], [ 136.93875, 35.21933 ], [ 136.93632, 35.21702 ], [ 136.93659, 35.21615 ], [ 136.92792, 35.21464 ], [ 136.92968, 35.21195 ], [ 136.9285, 35.21033 ], [ 136.92616, 35.21121 ], [ 136.92579, 35.21052 ], [ 136.93833, 35.20662 ], [ 136.94385, 35.19944 ], [ 136.93823, 35.19524 ], [ 136.93666, 35.19276 ], [ 136.93606, 35.19 ], [ 136.93343, 35.18996 ], [ 136.93008, 35.18861 ], [ 136.92713, 35.18885 ], [ 136.92732, 35.18771 ], [ 136.92007, 35.18788 ], [ 136.91693, 35.18536 ], [ 136.90646, 35.18636 ], [ 136.90509, 35.18632 ], [ 136.90514, 35.18543 ], [ 136.90442, 35.1854 ], [ 136.90437, 35.18601 ], [ 136.89946, 35.18666 ], [ 136.89885, 35.18943 ], [ 136.89989, 35.19023 ], [ 136.90059, 35.19238 ], [ 136.90015, 35.19289 ], [ 136.90026, 35.19864 ], [ 136.90141, 35.20959 ], [ 136.90069, 35.20925 ], [ 136.9005, 35.20986 ], [ 136.89723, 35.20998 ], [ 136.89109, 35.21195 ], [ 136.90048, 35.21648 ], [ 136.90374, 35.21946 ], [ 136.90745, 35.22104 ], [ 136.90747, 35.22257 ], [ 136.90442, 35.22707 ], [ 136.90372, 35.22719 ], [ 136.90475, 35.22937 ], [ 136.90402, 35.23331 ], [ 136.90312, 35.23414 ], [ 136.89923, 35.23479 ], [ 136.90137, 35.23622 ], [ 136.90144, 35.23975 ], [ 136.90304, 35.2404 ], [ 136.90453, 35.23962 ], [ 136.90873, 35.24037 ], [ 136.91097, 35.23869 ], [ 136.911, 35.23604 ], [ 136.91197, 35.23612 ], [ 136.91426, 35.23726 ], [ 136.9198, 35.23798 ], [ 136.92239, 35.24099 ], [ 136.92416, 35.24074 ], [ 136.92489, 35.24126 ], [ 136.92568, 35.243 ], [ 136.92742, 35.24178 ], [ 136.92817, 35.24334 ], [ 136.92993, 35.24367 ], [ 136.92908, 35.23308 ], [ 136.92663, 35.2324 ], [ 136.92648, 35.23137 ], [ 136.92552, 35.23108 ], [ 136.92513, 35.22933 ], [ 136.92604, 35.22933 ], [ 136.92627, 35.22855 ], [ 136.9292, 35.22945 ], [ 136.92947, 35.22899 ], [ 136.92824, 35.22882 ], [ 136.92791, 35.22819 ], [ 136.9288, 35.22702 ], [ 136.92745, 35.22683 ], [ 136.92855, 35.22569 ], [ 136.92834, 35.225 ] ] ] } },
{ "type": "Feature", "properties": { "name": "千種区", "code": "23101" }, "geometry": { "type": "Polygon", "coordinates": [ [ [ 136.925, 35.15793 ], [ 136.92284, 35.15749 ], [ 136.92301, 35.1586 ], [ 136.92065, 35.15904 ], [ 136.92757, 35.16653 ], [ 136.92681, 35.16702 ], [ 136.92777, 35.16813 ], [ 136.93037, 35.1699 ], [ 136.93594, 35.17589 ], [ 136.93702, 35.17805 ], [ 136.93725, 35.18039 ], [ 136.94054, 35.17971 ], [ 136.94159, 35.18317 ], [ 136.94496, 35.18305 ], [ 136.9454, 35.18463 ], [ 136.95002, 35.18466 ], [ 136.9542, 35.18388 ], [ 136.95503, 35.18713 ], [ 136.96565, 35.18566 ], [ 136.96489, 35.18644 ], [ 136.96559, 35.19071 ], [ 136.97421, 35.19031 ], [ 136.9818, 35.19194 ], [ 136.98518, 35.19348 ], [ 136.98666, 35.19191 ], [ 136.98714, 35.19095 ], [ 136.98697, 35.18446 ], [ 136.98487, 35.1828 ], [ 136.98437, 35.17974 ], [ 136.97787, 35.17949 ], [ 136.97891, 35.17561 ], [ 136.98126, 35.17546 ], [ 136.98297, 35.17386 ], [ 136.98499, 35.17013 ], [ 136.98781, 35.16883 ], [ 136.98989, 35.16909 ], [ 136.992, 35.16648 ], [ 136.99214, 35.16374 ], [ 136.99018, 35.16442 ], [ 136.9903, 35.16238 ], [ 136.98979, 35.16132 ], [ 136.98865, 35.16095 ], [ 136.98903, 35.16034 ], [ 136.988, 35.15509 ], [ 136.98736, 35.15393 ], [ 136.98529, 35.153 ], [ 136.98581, 35.15141 ], [ 136.98509, 35.15074 ], [ 136.98576, 35.14927 ], [ 136.98134, 35.14931 ], [ 136.98044, 35.15275 ], [ 136.9776, 35.15113 ], [ 136.97742, 35.14894 ], [ 136.97565, 35.14823 ], [ 136.97426, 35.14877 ], [ 136.97041, 35.14782 ], [ 136.96862, 35.15152 ], [ 136.96699, 35.15279 ], [ 136.96573, 35.15305 ], [ 136.96426, 35.15244 ], [ 136.96077, 35.15368 ], [ 136.9621, 35.15755 ], [ 136.95419, 35.15947 ], [ 136.95199, 35.15716 ], [ 136.94985, 35.15833 ], [ 136.94629, 35.15904 ], [ 136.94481, 35.15833 ], [ 136.94465, 35.15746 ], [ 136.94043, 35.15792 ], [ 136.93949, 35.15393 ], [ 136.93315, 35.15966 ], [ 136.93207, 35.15749 ], [ 136.92758, 35.15861 ], [ 136.925, 35.15793 ] ] ] } },
{ "type": "Feature", "properties": { "name": "南区", "code": "23112" }, "geometry": { "type": "Polygon", "coordinates": [ [ [ 136.90579, 35.06841 ], [ 136.9016, 35.06892 ], [ 136.90227, 35.07346 ], [ 136.90364, 35.07683 ], [ 136.9045, 35.07714 ], [ 136.90339, 35.078 ], [ 136.90418, 35.08393 ], [ 136.90957, 35.08345 ], [ 136.91215, 35.09067 ], [ 136.9034, 35.08877 ], [ 136.90192, 35.09397 ], [ 136.90055, 35.0938 ], [ 136.90148, 35.10342 ], [ 136.90095, 35.10574 ], [ 136.90131, 35.10898 ], [ 136.90046, 35.10983 ], [ 136.90154, 35.11177 ], [ 136.90105, 35.11196 ], [ 136.90451, 35.11802 ], [ 136.90705, 35.11751 ], [ 136.90749, 35.11671 ], [ 136.91155, 35.11611 ], [ 136.91144, 35.11537 ], [ 136.9151, 35.11501 ], [ 136.91673, 35.11218 ], [ 136.92154, 35.11105 ], [ 136.92153, 35.10986 ], [ 136.92231, 35.10963 ], [ 136.92204, 35.10849 ], [ 136.92585, 35.11271 ], [ 136.92988, 35.11555 ], [ 136.9338, 35.11561 ], [ 136.93904, 35.1175 ], [ 136.94696, 35.1132 ], [ 136.94881, 35.11342 ], [ 136.94957, 35.11115 ], [ 136.94931, 35.10574 ], [ 136.94773, 35.09655 ], [ 136.94702, 35.09495 ], [ 136.9416, 35.09016 ], [ 136.94097, 35.07959 ], [ 136.93989, 35.07747 ], [ 136.93591, 35.07388 ], [ 136.93165, 35.07111 ], [ 136.90579, 35.06841 ] ] ] } },
{ "type": "Feature", "properties": { "name": "名東区", "code": "23115" }, "geometry": { "type": "Polygon", "coordinates": [ [ [ 137.00436, 35.14014 ], [ 137.00161, 35.14197 ], [ 137.00067, 35.14341 ], [ 137.00054, 35.14532 ], [ 136.99894, 35.14573 ], [ 136.99674, 35.14496 ], [ 136.99417, 35.14496 ], [ 136.99042, 35.14771 ], [ 136.98917, 35.14735 ], [ 136.98576, 35.14927 ], [ 136.98509, 35.15074 ], [ 136.98581, 35.15141 ], [ 136.98529, 35.153 ], [ 136.98736, 35.15393 ], [ 136.988, 35.15509 ], [ 136.98903, 35.16034 ], [ 136.98865, 35.16095 ], [ 136.98979, 35.16132 ], [ 136.9903, 35.16238 ], [ 136.99018, 35.16442 ], [ 136.99214, 35.16374 ], [ 136.992, 35.16648 ], [ 136.98989, 35.16909 ], [ 136.98781, 35.16883 ], [ 136.98499, 35.17013 ], [ 136.98173, 35.17509 ], [ 136.98042, 35.17582 ], [ 136.97891, 35.17561 ], [ 136.9779, 35.17917 ], [ 136.98437, 35.17974 ], [ 136.98487, 35.1828 ], [ 136.98697, 35.18446 ], [ 136.98703, 35.18547 ], [ 136.98714, 35.19095 ], [ 136.98518, 35.19348 ], [ 136.99056, 35.19692 ], [ 136.99284, 35.19752 ], [ 136.99584, 35.19422 ], [ 136.99801, 35.19527 ], [ 137.00065, 35.19434 ], [ 137.00158, 35.19204 ], [ 137.00732, 35.19243 ], [ 137.00803, 35.19007 ], [ 137.0168, 35.19117 ], [ 137.02001, 35.19071 ], [ 137.01792, 35.18831 ], [ 137.02475, 35.18607 ], [ 137.02616, 35.18411 ], [ 137.02561, 35.18164 ], [ 137.02684, 35.1794 ], [ 137.0261, 35.17545 ], [ 137.02275, 35.17522 ], [ 137.02208, 35.17397 ], [ 137.02534, 35.17318 ], [ 137.02478, 35.17163 ], [ 137.02543, 35.17045 ], [ 137.02748, 35.16931 ], [ 137.02642, 35.16689 ], [ 137.02286, 35.16313 ], [ 137.02423, 35.16264 ], [ 137.0251, 35.15808 ], [ 137.02702, 35.15617 ], [ 137.0256, 35.15476 ], [ 137.02215, 35.15347 ], [ 137.02224, 35.15136 ], [ 137.02121, 35.14927 ], [ 137.0204, 35.1484 ], [ 137.01913, 35.14827 ], [ 137.01841, 35.14715 ], [ 137.02137, 35.14554 ], [ 137.01993, 35.14324 ], [ 137.02034, 35.14292 ], [ 137.02142, 35.14356 ], [ 137.02224, 35.14289 ], [ 137.02331, 35.13986 ], [ 137.01943, 35.13836 ], [ 137.01807, 35.13733 ], [ 137.01788, 35.13638 ], [ 137.01688, 35.13644 ], [ 137.01611, 35.13747 ], [ 137.01732, 35.1384 ], [ 137.01738, 35.13916 ], [ 137.01654, 35.13913 ], [ 137.0158, 35.13755 ], [ 137.0154, 35.13869 ], [ 137.01522, 35.13778 ], [ 137.01269, 35.13812 ], [ 137.00999, 35.13684 ], [ 137.01001, 35.13902 ], [ 137.00763, 35.13803 ], [ 137.00543, 35.13835 ], [ 137.00605, 35.13921 ], [ 137.00436, 35.14014 ] ] ] } },
{ "type": "Feature", "properties": { "name": "天白区", "code": "23116" }, "geometry": { "type": "Polygon", "coordinates": [ [ [ 136.94957, 35.11115 ], [ 136.95243, 35.11259 ], [ 136.95874, 35.11352 ], [ 136.96162, 35.11521 ], [ 136.96219, 35.11669 ], [ 136.96122, 35.12387 ], [ 136.95865, 35.13106 ], [ 136.96035, 35.13485 ], [ 136.96165, 35.13622 ], [ 136.96417, 35.1365 ], [ 136.96672, 35.13573 ], [ 136.96827, 35.13872 ], [ 136.96741, 35.13998 ], [ 136.97231, 35.14177 ], [ 136.97218, 35.14333 ], [ 136.97284, 35.14341 ], [ 136.97253, 35.14815 ], [ 136.97447, 35.14879 ], [ 136.97565, 35.14823 ], [ 136.97742, 35.14894 ], [ 136.9776, 35.15113 ], [ 136.98044, 35.15275 ], [ 136.98134, 35.14931 ], [ 136.98319, 35.1489 ], [ 136.98538, 35.14939 ], [ 136.98917, 35.14735 ], [ 136.99042, 35.14771 ], [ 136.99417, 35.14496 ], [ 136.99951, 35.14572 ], [ 137.00054, 35.14532 ], [ 137.00067, 35.14341 ], [ 137.00202, 35.14152 ], [ 137.00605, 35.13921 ], [ 137.00543, 35.13835 ], [ 137.00763, 35.13803 ], [ 137.01001, 35.13902 ], [ 137.00999, 35.13684 ], [ 137.00933, 35.1363 ], [ 137.00795, 35.13671 ], [ 137.00695, 35.13629 ], [ 137.00834, 35.13374 ], [ 137.00816, 35.1312 ], [ 137.0069, 35.13064 ], [ 137.00463, 35.13117 ], [ 137.00013, 35.13002 ], [ 137.00408, 35.12788 ], [ 137.00825, 35.12382 ], [ 137.01081, 35.12024 ], [ 137.01439, 35.11715 ], [ 137.01692, 35.11272 ], [ 137.01877, 35.11227 ], [ 137.01997, 35.10957 ], [ 137.01822, 35.10942 ], [ 137.01853, 35.10868 ], [ 137.01807, 35.10827 ], [ 137.0167, 35.10917 ], [ 137.01454, 35.10757 ], [ 137.01239, 35.1073 ], [ 137.00104, 35.10127 ], [ 137.00048, 35.10043 ], [ 137.00045, 35.10292 ], [ 136.99938, 35.10324 ], [ 136.99849, 35.10521 ], [ 136.9962, 35.10613 ], [ 136.99301, 35.106 ], [ 136.99027, 35.10945 ], [ 136.98436, 35.10436 ], [ 136.97802, 35.1036 ], [ 136.97814, 35.10263 ], [ 136.96717, 35.10228 ], [ 136.96513, 35.10198 ], [ 136.96535, 35.10143 ], [ 136.95697, 35.10068 ], [ 136.95468, 35.10189 ], [ 136.95236, 35.10216 ], [ 136.94823, 35.09942 ], [ 136.94957, 35.11115 ] ] ] } },
{ "type": "Feature", "properties": { "name": "守山区", "code": "23113" }, "geometry": { "type": "Polygon", "coordinates": [ [ [ 137.01172, 35.25 ], [ 137.01364, 35.25162 ], [ 137.02014, 35.25237 ], [ 137.02237, 35.25338 ], [ 137.02986, 35.25932 ], [ 137.03697, 35.25841 ], [ 137.05034, 35.26023 ], [ 137.05348, 35.25783 ], [ 137.0529, 35.25561 ], [ 137.05357, 35.25502 ], [ 137.05334, 35.25338 ], [ 137.05497, 35.25042 ], [ 137.05718, 35.25014 ], [ 137.05922, 35.25127 ], [ 137.06087, 35.24817 ], [ 137.05988, 35.24628 ], [ 137.05667, 35.246 ], [ 137.05457, 35.24365 ], [ 137.05205, 35.24311 ], [ 137.05093, 35.24079 ], [ 137.0521, 35.23903 ], [ 137.05126, 35.23852 ], [ 137.04963, 35.23858 ], [ 137.04934, 35.23783 ], [ 137.04618, 35.23842 ], [ 137.04405, 35.2414 ], [ 137.04343, 35.24146 ], [ 137.04035, 35.24029 ], [ 137.03844, 35.23759 ], [ 137.03469, 35.23812 ], [ 137.03075, 35.23461 ], [ 137.02573, 35.23422 ], [ 137.02239, 35.23121 ], [ 137.01945, 35.23127 ], [ 137.01595, 35.22785 ], [ 137.01085, 35.22118 ], [ 137.00674, 35.21924 ], [ 137.00511, 35.21753 ], [ 137.00416, 35.21246 ], [ 137.00146, 35.20934 ], [ 137.00852, 35.21012 ], [ 137.00889, 35.20903 ], [ 137.00556, 35.20613 ], [ 137.00947, 35.20623 ], [ 137.00972, 35.20384 ], [ 137.01053, 35.20378 ], [ 137.01328, 35.20104 ], [ 137.01332, 35.20006 ], [ 137.01455, 35.20076 ], [ 137.01476, 35.20032 ], [ 137.01444, 35.19893 ], [ 137.01218, 35.19924 ], [ 137.01201, 35.19487 ], [ 137.01684, 35.19459 ], [ 137.01687, 35.1941 ], [ 137.01991, 35.19376 ], [ 137.02093, 35.19482 ], [ 137.0234, 35.19574 ], [ 137.02327, 35.19649 ], [ 137.01972, 35.19769 ], [ 137.01978, 35.19844 ], [ 137.02273, 35.20119 ], [ 137.0257, 35.20191 ], [ 137.02619, 35.19856 ], [ 137.02512, 35.19758 ], [ 137.02266, 35.19701 ], [ 137.02361, 35.19661 ], [ 137.02444, 35.19507 ], [ 137.02497, 35.19574 ], [ 137.03003, 35.19726 ], [ 137.0314, 35.19436 ], [ 137.02999, 35.19395 ], [ 137.02944, 35.19462 ], [ 137.02552, 35.19346 ], [ 137.02558, 35.19289 ], [ 137.03192, 35.19202 ], [ 137.03232, 35.19157 ], [ 137.03178, 35.19118 ], [ 137.02992, 35.19045 ], [ 137.02867, 35.19066 ], [ 137.02836, 35.19014 ], [ 137.02674, 35.19102 ], [ 137.02344, 35.19122 ], [ 137.02045, 35.19068 ], [ 137.0168, 35.19117 ], [ 137.0137, 35.19044 ], [ 137.01009, 35.19073 ], [ 137.00803, 35.19007 ], [ 137.00732, 35.19243 ], [ 137.00158, 35.19204 ], [ 137.00065, 35.19434 ], [ 136.99801, 35.19527 ], [ 136.99584, 35.19422 ], [ 136.99284, 35.19752 ], [ 136.99056, 35.19692 ], [ 136.98354, 35.19257 ], [ 136.97899, 35.19118 ], [ 136.97369, 35.19024 ], [ 136.96145, 35.19101 ], [ 136.95308, 35.19348 ], [ 136.94921, 35.1953 ], [ 136.94415, 35.1991 ], [ 136.93833, 35.20662 ], [ 136.92579, 35.21052 ], [ 136.92616, 35.21121 ], [ 136.9285, 35.21033 ], [ 136.92968, 35.21195 ], [ 136.92792, 35.21464 ], [ 136.9378, 35.21644 ], [ 136.94667, 35.2161 ], [ 136.95713, 35.21746 ], [ 136.96626, 35.21681 ], [ 136.97303, 35.21812 ], [ 136.98192, 35.22549 ], [ 136.98902, 35.22672 ], [ 136.99045, 35.23036 ], [ 136.98963, 35.23739 ], [ 136.9911, 35.23974 ], [ 136.99317, 35.24086 ], [ 137.00495, 35.24039 ], [ 137.00712, 35.24094 ], [ 137.01071, 35.24457 ], [ 137.01172, 35.25 ] ] ] } },
{ "type": "Feature", "properties": { "name": "昭和区", "code": "23107" }, "geometry": { "type": "Polygon", "coordinates": [ [ [ 136.9148, 35.13736 ], [ 136.91023, 35.14769 ], [ 136.92065, 35.15904 ], [ 136.92301, 35.1586 ], [ 136.92284, 35.15749 ], [ 136.92746, 35.15861 ], [ 136.93207, 35.15749 ], [ 136.93315, 35.15966 ], [ 136.93949, 35.15393 ], [ 136.94043, 35.15792 ], [ 136.94465, 35.15746 ], [ 136.94481, 35.15833 ], [ 136.94629, 35.15904 ], [ 136.94985, 35.15833 ], [ 136.95199, 35.15716 ], [ 136.95419, 35.15947 ], [ 136.95817, 35.1589 ], [ 136.9621, 35.15755 ], [ 136.96077, 35.15368 ], [ 136.96426, 35.15244 ], [ 136.96573, 35.15305 ], [ 136.96699, 35.15279 ], [ 136.96862, 35.15152 ], [ 136.97034, 35.14785 ], [ 136.97253, 35.14815 ], [ 136.97284, 35.14341 ], [ 136.97218, 35.14333 ], [ 136.97231, 35.14177 ], [ 136.96741, 35.13998 ], [ 136.96827, 35.13872 ], [ 136.96656, 35.13561 ], [ 136.96417, 35.1365 ], [ 136.96075, 35.13561 ], [ 136.95658, 35.13579 ], [ 136.95193, 35.13814 ], [ 136.94845, 35.1378 ], [ 136.94537, 35.13856 ], [ 136.94403, 35.13797 ], [ 136.93735, 35.13778 ], [ 136.93694, 35.14056 ], [ 136.9265, 35.13994 ], [ 136.92579, 35.1393 ], [ 136.91908, 35.13927 ], [ 136.91913, 35.13865 ], [ 136.91768, 35.13857 ], [ 136.91778, 35.13749 ], [ 136.9148, 35.13736 ] ] ] } },
{ "type": "Feature", "properties": { "name": "東区", "code": "23102" }, "geometry": { "type": "Polygon", "coordinates": [ [ [ 136.90732, 35.18609 ], [ 136.91233, 35.18561 ], [ 136.9136, 35.18602 ], [ 136.91693, 35.18536 ], [ 136.92007, 35.18788 ], [ 136.92732, 35.18771 ], [ 136.92713, 35.18885 ], [ 136.93008, 35.18861 ], [ 136.93343, 35.18996 ], [ 136.93606, 35.19 ], [ 136.93666, 35.19276 ], [ 136.93823, 35.19524 ], [ 136.94385, 35.19944 ], [ 136.95083, 35.19429 ], [ 136.96054, 35.19123 ], [ 136.96559, 35.19071 ], [ 136.96489, 35.18644 ], [ 136.9658, 35.18581 ], [ 136.96477, 35.1854 ], [ 136.95503, 35.18713 ], [ 136.9542, 35.18388 ], [ 136.95002, 35.18466 ], [ 136.9454, 35.18463 ], [ 136.94496, 35.18305 ], [ 136.94159, 35.18317 ], [ 136.94054, 35.17971 ], [ 136.93725, 35.18039 ], [ 136.93702, 35.17805 ], [ 136.93557, 35.17542 ], [ 136.93037, 35.1699 ], [ 136.92769, 35.16936 ], [ 136.92549, 35.17029 ], [ 136.91911, 35.1704 ], [ 136.91315, 35.16956 ], [ 136.91233, 35.17047 ], [ 136.91078, 35.16946 ], [ 136.90933, 35.1695 ], [ 136.90851, 35.178 ], [ 136.90726, 35.17842 ], [ 136.90961, 35.17852 ], [ 136.90896, 35.18196 ], [ 136.90932, 35.183 ], [ 136.90867, 35.18304 ], [ 136.90847, 35.18557 ], [ 136.90736, 35.18563 ], [ 136.90732, 35.18609 ] ] ] } },
{ "type": "Feature", "properties": { "name": "港区", "code": "23111" }, "geometry": { "type": "MultiPolygon", "coordinates": [ [ [ [ 136.84059, 35.05604 ], [ 136.84866, 35.05605 ], [ 136.84869, 35.05398 ], [ 136.8521, 35.05398 ], [ 136.85245, 35.05533 ], [ 136.85496, 35.05531 ], [ 136.85203, 35.04385 ], [ 136.85096, 35.04375 ], [ 136.84773, 35.0468 ], [ 136.84618, 35.04553 ], [ 136.85024, 35.0406 ], [ 136.84888, 35.03984 ], [ 136.84563, 35.0429 ], [ 136.84408, 35.04162 ], [ 136.84815, 35.0367 ], [ 136.84746, 35.03593 ], [ 136.84614, 35.03753 ], [ 136.84564, 35.03725 ], [ 136.84663, 35.03488 ], [ 136.84713, 35.03545 ], [ 136.84584, 35.03388 ], [ 136.84167, 35.04308 ], [ 136.83798, 35.05184 ], [ 136.84059, 35.05604 ] ] ], [ [ [ 136.8703, 35.06301 ], [ 136.8676, 35.06325 ], [ 136.86946, 35.06806 ], [ 136.87368, 35.07193 ], [ 136.88131, 35.07156 ], [ 136.88226, 35.07049 ], [ 136.88226, 35.06942 ], [ 136.87617, 35.05444 ], [ 136.87645, 35.05366 ], [ 136.87576, 35.05381 ], [ 136.87238, 35.04973 ], [ 136.86525, 35.05001 ], [ 136.8703, 35.06301 ] ] ], [ [ [ 136.87037, 35.08574 ], [ 136.87029, 35.08532 ], [ 136.8698, 35.08442 ], [ 136.87032, 35.08526 ], [ 136.87042, 35.08573 ], [ 136.87034, 35.08617 ], [ 136.86979, 35.08744 ], [ 136.87036, 35.08615 ], [ 136.87044, 35.08571 ], [ 136.87031, 35.0852 ], [ 136.86984, 35.08437 ], [ 136.86876, 35.08479 ], [ 136.86977, 35.08443 ], [ 136.87026, 35.0853 ], [ 136.86951, 35.08793 ], [ 136.86974, 35.08742 ], [ 136.87028, 35.08618 ], [ 136.87037, 35.08574 ] ] ], [ [ [ 136.88317, 35.0694 ], [ 136.88342, 35.07058 ], [ 136.88499, 35.07052 ], [ 136.88525, 35.07453 ], [ 136.88697, 35.07443 ], [ 136.88675, 35.07045 ], [ 136.88959, 35.07034 ], [ 136.88972, 35.07262 ], [ 136.89026, 35.07263 ], [ 136.8896, 35.07297 ], [ 136.89009, 35.0767 ], [ 136.89608, 35.07649 ], [ 136.89616, 35.07737 ], [ 136.89007, 35.07784 ], [ 136.89022, 35.08247 ], [ 136.89096, 35.08417 ], [ 136.89057, 35.08431 ], [ 136.89616, 35.08358 ], [ 136.8966, 35.08498 ], [ 136.89092, 35.08565 ], [ 136.89014, 35.08622 ], [ 136.89034, 35.08992 ], [ 136.89216, 35.09178 ], [ 136.89202, 35.09252 ], [ 136.88821, 35.09366 ], [ 136.88568, 35.09112 ], [ 136.88482, 35.08876 ], [ 136.88049, 35.08927 ], [ 136.88089, 35.09155 ], [ 136.88017, 35.09164 ], [ 136.88, 35.0907 ], [ 136.88011, 35.09165 ], [ 136.87924, 35.09175 ], [ 136.879, 35.09037 ], [ 136.87942, 35.09028 ], [ 136.87884, 35.08946 ], [ 136.87533, 35.0904 ], [ 136.87459, 35.09002 ], [ 136.87389, 35.08807 ], [ 136.87272, 35.08739 ], [ 136.87199, 35.0884 ], [ 136.87314, 35.08853 ], [ 136.87334, 35.08939 ], [ 136.86854, 35.08821 ], [ 136.86671, 35.08491 ], [ 136.86929, 35.0821 ], [ 136.86755, 35.07899 ], [ 136.8647, 35.07396 ], [ 136.8621, 35.07678 ], [ 136.86102, 35.07486 ], [ 136.86371, 35.07173 ], [ 136.8626, 35.0698 ], [ 136.86009, 35.07255 ], [ 136.85651, 35.07251 ], [ 136.85638, 35.07818 ], [ 136.85509, 35.07758 ], [ 136.85508, 35.06926 ], [ 136.85586, 35.06926 ], [ 136.85585, 35.06998 ], [ 136.85836, 35.06999 ], [ 136.85993, 35.06832 ], [ 136.85995, 35.06526 ], [ 136.85805, 35.05873 ], [ 136.8551, 35.05937 ], [ 136.85548, 35.05659 ], [ 136.84744, 35.05666 ], [ 136.84767, 35.05947 ], [ 136.84266, 35.0592 ], [ 136.84571, 35.06428 ], [ 136.84966, 35.07803 ], [ 136.84871, 35.07859 ], [ 136.84725, 35.08305 ], [ 136.84231, 35.08268 ], [ 136.84279, 35.0807 ], [ 136.84305, 35.07882 ], [ 136.84313, 35.07705 ], [ 136.84306, 35.07553 ], [ 136.8429, 35.07426 ], [ 136.84246, 35.07214 ], [ 136.84186, 35.06986 ], [ 136.84072, 35.06629 ], [ 136.84303, 35.07553 ], [ 136.84228, 35.08267 ], [ 136.83282, 35.08174 ], [ 136.82742, 35.08293 ], [ 136.82471, 35.08023 ], [ 136.81647, 35.08696 ], [ 136.81006, 35.09338 ], [ 136.80695, 35.09487 ], [ 136.79794, 35.09694 ], [ 136.79809, 35.10185 ], [ 136.79745, 35.10407 ], [ 136.79501, 35.10837 ], [ 136.79306, 35.10984 ], [ 136.79197, 35.11226 ], [ 136.7936, 35.11884 ], [ 136.79315, 35.11922 ], [ 136.79399, 35.12134 ], [ 136.79366, 35.12206 ], [ 136.80127, 35.12237 ], [ 136.80364, 35.12217 ], [ 136.80417, 35.12065 ], [ 136.80919, 35.12086 ], [ 136.80965, 35.12258 ], [ 136.81099, 35.12229 ], [ 136.81394, 35.12336 ], [ 136.81568, 35.12689 ], [ 136.81642, 35.12706 ], [ 136.82211, 35.1225 ], [ 136.82185, 35.12056 ], [ 136.82256, 35.11979 ], [ 136.82247, 35.11865 ], [ 136.82789, 35.11892 ], [ 136.82988, 35.12091 ], [ 136.83313, 35.1186 ], [ 136.83376, 35.11763 ], [ 136.83489, 35.10994 ], [ 136.83632, 35.1099 ], [ 136.83717, 35.11737 ], [ 136.83887, 35.11718 ], [ 136.83886, 35.11657 ], [ 136.83958, 35.11645 ], [ 136.84499, 35.1181 ], [ 136.84682, 35.11941 ], [ 136.85371, 35.1222 ], [ 136.86337, 35.12301 ], [ 136.8639, 35.11836 ], [ 136.88949, 35.11845 ], [ 136.88949, 35.11309 ], [ 136.89421, 35.11308 ], [ 136.89559, 35.11379 ], [ 136.90154, 35.11177 ], [ 136.90045, 35.10977 ], [ 136.90131, 35.10898 ], [ 136.90095, 35.10574 ], [ 136.90148, 35.10342 ], [ 136.90055, 35.0938 ], [ 136.90192, 35.09397 ], [ 136.9034, 35.08877 ], [ 136.91215, 35.09067 ], [ 136.90957, 35.08345 ], [ 136.90418, 35.08393 ], [ 136.90339, 35.078 ], [ 136.9045, 35.07714 ], [ 136.90364, 35.07683 ], [ 136.90227, 35.07346 ], [ 136.9016, 35.06892 ], [ 136.89091, 35.06754 ], [ 136.88396, 35.06727 ], [ 136.88317, 35.0694 ] ] ] ] } },
{ "type": "Feature", "properties": { "name": "熱田区", "code": "23109" }, "geometry": { "type": "Polygon", "coordinates": [ [ [ 136.89563, 35.14277 ], [ 136.90372, 35.14254 ], [ 136.90813, 35.14391 ], [ 136.90842, 35.14329 ], [ 136.91216, 35.14329 ], [ 136.91705, 35.13103 ], [ 136.91724, 35.12582 ], [ 136.91531, 35.12003 ], [ 136.91403, 35.11929 ], [ 136.91343, 35.11735 ], [ 136.91155, 35.11611 ], [ 136.90749, 35.11671 ], [ 136.90705, 35.11751 ], [ 136.90466, 35.11811 ], [ 136.90105, 35.11196 ], [ 136.89559, 35.11379 ], [ 136.89421, 35.11308 ], [ 136.88949, 35.11309 ], [ 136.88949, 35.11845 ], [ 136.88256, 35.11844 ], [ 136.88628, 35.14056 ], [ 136.88931, 35.14072 ], [ 136.89218, 35.14009 ], [ 136.89195, 35.13904 ], [ 136.89868, 35.1364 ], [ 136.89563, 35.14277 ] ] ] } },
{ "type": "Feature", "properties": { "name": "瑞穂区", "code": "23108" }, "geometry": { "type": "Polygon", "coordinates": [ [ [ 136.94167, 35.11616 ], [ 136.93904, 35.1175 ], [ 136.9338, 35.11561 ], [ 136.93007, 35.11563 ], [ 136.92585, 35.11271 ], [ 136.92237, 35.10849 ], [ 136.92115, 35.11136 ], [ 136.91673, 35.11218 ], [ 136.9151, 35.11501 ], [ 136.91144, 35.11537 ], [ 136.91155, 35.11611 ], [ 136.91402, 35.11816 ], [ 136.91403, 35.11929 ], [ 136.91531, 35.12003 ], [ 136.91743, 35.1267 ], [ 136.91705, 35.13103 ], [ 136.91468, 35.13736 ], [ 136.91778, 35.13749 ], [ 136.91768, 35.13857 ], [ 136.91913, 35.13865 ], [ 136.91908, 35.13927 ], [ 136.92579, 35.1393 ], [ 136.9265, 35.13994 ], [ 136.93694, 35.14056 ], [ 136.93735, 35.13778 ], [ 136.94403, 35.13797 ], [ 136.94537, 35.13856 ], [ 136.94845, 35.1378 ], [ 136.95193, 35.13814 ], [ 136.95369, 35.1377 ], [ 136.9562, 35.13587 ], [ 136.96075, 35.13561 ], [ 136.95865, 35.13106 ], [ 136.96122, 35.12387 ], [ 136.96219, 35.11669 ], [ 136.96139, 35.11491 ], [ 136.95874, 35.11352 ], [ 136.95243, 35.11259 ], [ 136.94957, 35.11115 ], [ 136.94881, 35.11342 ], [ 136.94696, 35.1132 ], [ 136.94167, 35.11616 ] ] ] } },
{ "type": "Feature", "properties": { "name": "緑区", "code": "23114" }, "geometry": { "type": "Polygon", "coordinates": [ [ [ 136.97494, 35.05 ], [ 136.97378, 35.0489 ], [ 136.97435, 35.04738 ], [ 136.97277, 35.04536 ], [ 136.97225, 35.04306 ], [ 136.97118, 35.04305 ], [ 136.97055, 35.0422 ], [ 136.97009, 35.0428 ], [ 136.96493, 35.04298 ], [ 136.96189, 35.03956 ], [ 136.95926, 35.03919 ], [ 136.96164, 35.04098 ], [ 136.96085, 35.04198 ], [ 136.96105, 35.04262 ], [ 136.95995, 35.04315 ], [ 136.95845, 35.04524 ], [ 136.95891, 35.04627 ], [ 136.95715, 35.0475 ], [ 136.95566, 35.04787 ], [ 136.95393, 35.04579 ], [ 136.95317, 35.0457 ], [ 136.9532, 35.04477 ], [ 136.94634, 35.04419 ], [ 136.94362, 35.04625 ], [ 136.94323, 35.04795 ], [ 136.94194, 35.04899 ], [ 136.94112, 35.05216 ], [ 136.93839, 35.05341 ], [ 136.93765, 35.05286 ], [ 136.93662, 35.0532 ], [ 136.93465, 35.05071 ], [ 136.9349, 35.04977 ], [ 136.93276, 35.04872 ], [ 136.93331, 35.04969 ], [ 136.93146, 35.04981 ], [ 136.9317, 35.05119 ], [ 136.92849, 35.0521 ], [ 136.92953, 35.05353 ], [ 136.92608, 35.05805 ], [ 136.92666, 35.05932 ], [ 136.92454, 35.05859 ], [ 136.92454, 35.06001 ], [ 136.92265, 35.06013 ], [ 136.92223, 35.06077 ], [ 136.92248, 35.06135 ], [ 136.9251, 35.06195 ], [ 136.9246, 35.06286 ], [ 136.9252, 35.06315 ], [ 136.92442, 35.06442 ], [ 136.92304, 35.06374 ], [ 136.92206, 35.06365 ], [ 136.92175, 35.06441 ], [ 136.9201, 35.06396 ], [ 136.92071, 35.06268 ], [ 136.92025, 35.06256 ], [ 136.91984, 35.06352 ], [ 136.91777, 35.06292 ], [ 136.91792, 35.06186 ], [ 136.91644, 35.06106 ], [ 136.91315, 35.06846 ], [ 136.91044, 35.06803 ], [ 136.90579, 35.06841 ], [ 136.93111, 35.07099 ], [ 136.93469, 35.07296 ], [ 136.9408, 35.0788 ], [ 136.94112, 35.08815 ], [ 136.94171, 35.0904 ], [ 136.94711, 35.09507 ], [ 136.94823, 35.09942 ], [ 136.9521, 35.10212 ], [ 136.95468, 35.10189 ], [ 136.95697, 35.10068 ], [ 136.96535, 35.10143 ], [ 136.96513, 35.10198 ], [ 136.96717, 35.10228 ], [ 136.97814, 35.10263 ], [ 136.97802, 35.1036 ], [ 136.98436, 35.10436 ], [ 136.99027, 35.10945 ], [ 136.99301, 35.106 ], [ 136.9962, 35.10613 ], [ 136.99849, 35.10521 ], [ 136.99938, 35.10324 ], [ 137.00045, 35.10292 ], [ 137.00048, 35.10043 ], [ 137.00104, 35.10127 ], [ 137.01239, 35.1073 ], [ 137.01454, 35.10757 ], [ 137.0167, 35.10917 ], [ 137.01807, 35.10827 ], [ 137.01853, 35.10868 ], [ 137.01822, 35.10942 ], [ 137.02111, 35.1098 ], [ 137.02219, 35.10466 ], [ 137.02348, 35.10258 ], [ 137.02251, 35.10099 ], [ 137.02255, 35.09867 ], [ 137.02001, 35.0961 ], [ 137.02152, 35.09314 ], [ 137.02148, 35.09122 ], [ 137.02087, 35.09114 ], [ 137.02101, 35.09323 ], [ 137.01977, 35.09516 ], [ 137.01881, 35.09474 ], [ 137.01881, 35.09563 ], [ 137.01641, 35.09421 ], [ 137.0175, 35.09256 ], [ 137.01721, 35.09117 ], [ 137.0157, 35.08747 ], [ 137.01336, 35.0853 ], [ 137.01188, 35.08497 ], [ 137.01333, 35.08369 ], [ 137.01299, 35.08173 ], [ 137.01184, 35.08222 ], [ 137.0116, 35.08098 ], [ 137.01069, 35.08125 ], [ 137.00975, 35.08065 ], [ 137.01127, 35.07957 ], [ 137.00956, 35.07532 ], [ 137.00745, 35.0744 ], [ 137.00685, 35.07323 ], [ 137.00455, 35.07198 ], [ 136.99908, 35.0729 ], [ 136.99861, 35.07436 ], [ 136.99645, 35.07224 ], [ 136.99472, 35.07182 ], [ 136.99159, 35.0729 ], [ 136.99015, 35.0726 ], [ 136.98836, 35.07368 ], [ 136.98752, 35.07197 ], [ 136.98736, 35.06743 ], [ 136.98547, 35.06613 ], [ 136.98559, 35.06062 ], [ 136.98427, 35.06128 ], [ 136.97849, 35.06145 ], [ 136.97436, 35.06293 ], [ 136.97592, 35.06161 ], [ 136.9724, 35.05643 ], [ 136.97341, 35.05388 ], [ 136.9725, 35.05339 ], [ 136.97325, 35.05213 ], [ 136.97483, 35.05192 ], [ 136.97494, 35.05 ] ] ] } },
{ "type": "Feature", "properties": { "name": "西区", "code": "23104" }, "geometry": { "type": "Polygon", "coordinates": [ [ [ 136.88054, 35.17212 ], [ 136.87739, 35.1789 ], [ 136.86823, 35.18782 ], [ 136.86593, 35.19166 ], [ 136.86984, 35.194 ], [ 136.8717, 35.19751 ], [ 136.87538, 35.20185 ], [ 136.8765, 35.20434 ], [ 136.87928, 35.20686 ], [ 136.8789, 35.20879 ], [ 136.87799, 35.20946 ], [ 136.87276, 35.20991 ], [ 136.87163, 35.21117 ], [ 136.86837, 35.21191 ], [ 136.86569, 35.20689 ], [ 136.86469, 35.20695 ], [ 136.86432, 35.20589 ], [ 136.86377, 35.20601 ], [ 136.8636, 35.20712 ], [ 136.86019, 35.20797 ], [ 136.86464, 35.21333 ], [ 136.86387, 35.21364 ], [ 136.86402, 35.21527 ], [ 136.86036, 35.21523 ], [ 136.85878, 35.21712 ], [ 136.85802, 35.21723 ], [ 136.85757, 35.21878 ], [ 136.85694, 35.21854 ], [ 136.85572, 35.23058 ], [ 136.86782, 35.23064 ], [ 136.87205, 35.23136 ], [ 136.87472, 35.22644 ], [ 136.87417, 35.22606 ], [ 136.87479, 35.22507 ], [ 136.88627, 35.22911 ], [ 136.89923, 35.23479 ], [ 136.90329, 35.23408 ], [ 136.90423, 35.23268 ], [ 136.90475, 35.22937 ], [ 136.90372, 35.22719 ], [ 136.90442, 35.22707 ], [ 136.90747, 35.22257 ], [ 136.90745, 35.22104 ], [ 136.90374, 35.21946 ], [ 136.90048, 35.21648 ], [ 136.89109, 35.21195 ], [ 136.89723, 35.20998 ], [ 136.9005, 35.20986 ], [ 136.90069, 35.20925 ], [ 136.90124, 35.20976 ], [ 136.90165, 35.20882 ], [ 136.90086, 35.20699 ], [ 136.90051, 35.20297 ], [ 136.90015, 35.19289 ], [ 136.90059, 35.19238 ], [ 136.89989, 35.19023 ], [ 136.89885, 35.18943 ], [ 136.89904, 35.18727 ], [ 136.89622, 35.18706 ], [ 136.89618, 35.18274 ], [ 136.89489, 35.18256 ], [ 136.89312, 35.17379 ], [ 136.89235, 35.17384 ], [ 136.89227, 35.17329 ], [ 136.88918, 35.17469 ], [ 136.88823, 35.17471 ], [ 136.88822, 35.17389 ], [ 136.88764, 35.174 ], [ 136.88227, 35.17627 ], [ 136.88193, 35.17112 ], [ 136.881, 35.17113 ], [ 136.88054, 35.17212 ] ] ] } }
]
}
